OBJECT_NAME,OBJECT_ID,EPOCH,MEAN_MOTION,ECCENTRICITY,INCLINATION,RA_OF_ASC_NODE,ARG_OF_PERICENTER,MEAN_ANOMALY,EPHEMERIS_TYPE,CLASSIFICATION_TYPE,NORAD_CAT_ID,ELEMENT_SET_NO,REV_AT_EPOCH,BSTAR,MEAN_MOTION_DOT,MEAN_MOTION_DDOT
TIANMU-1 20,2023-208B,2026-07-23T11:39:24.532704,15.33263333,.00071192,97.4466,321.6626,181.9753,178.1463,0,U,58661,999,14298,.28442073E-3,.907E-4,0
TIANMU-1 21,2023-208C,2026-07-23T14:43:49.524096,15.35673056,.00074599,97.4526,324.6328,174.3313,185.8016,0,U,58662,999,14315,.32887634E-3,.1134E-3,0
TIANMU-1 22,2023-208D,2026-07-23T14:25:46.004160,15.31518256,.00035341,97.4519,321.0098,185.2720,174.8484,0,U,58663,999,14290,.27707941E-3,.8357E-4,0
TIANMU-1 15,2024-004A,2026-07-23T14:25:21.991008,15.26980185,.00067758,97.4677,30.7932,195.1079,164.9958,0,U,58700,999,14133,.24140642E-3,.6322E-4,0
TIANMU-1 16,2024-004B,2026-07-23T14:09:22.685760,15.27082531,.00050393,97.4624,29.9943,208.8109,151.2853,0,U,58701,999,14133,.22232811E-3,.5833E-4,0
TIANMU-1 17,2024-004C,2026-07-23T15:22:50.919168,15.27080819,.00044521,97.4651,30.5434,213.4520,146.6438,0,U,58702,999,14133,.21948953E-3,.5757E-4,0
TIANMU-1 18,2024-004D,2026-07-23T14:49:05.913984,15.26994398,.00045277,97.4669,30.7835,190.0250,170.0899,0,U,58703,999,14133,.22718957E-3,.5946E-4,0
INSAT-3DS,2024-033A,2026-07-23T13:22:31.723104,1.00273517,.00012803,0.0707,262.2335,216.2671,105.4693,0,U,58990,999,4743,0,-.151E-5,0
METEOR-M2 4,2024-039A,2026-07-23T14:53:35.487168,14.22432785,.00081866,98.7031,163.4649,67.8130,292.3916,0,U,59051,999,12444,.21928209E-4,.5E-7,0
GOES 19,2024-119A,2026-07-23T12:37:41.208960,1.00272112,.00003247,0.0205,124.2755,46.6739,244.5382,0,U,60133,999,732,0,-.244E-5,0
MTG-S1,2025-143A,2026-07-23T07:51:05.624352,1.00276021,.00031695,0.5803,346.9400,255.5573,176.0210,0,U,64723,999,378,0,-.1E-7,0
METOP-SGA1,2025-172A,2026-07-23T10:07:46.454016,14.21503390,.0001469,98.6622,263.4060,90.8416,269.2930,0,U,65159,999,4893,.27353177E-4,.16E-6,0
FENGYUN 3H,2025-219A,2026-07-23T07:56:45.831264,14.19925773,.00009658,98.6770,144.3987,63.6430,296.4846,0,U,65815,999,4251,.32075167E-4,.25E-6,0
