TIANMU-1 20             
1 58661U 23208B   26204.48570061  .00009070  00000+0  28442-3 0  9994
2 58661  97.4466 321.6626 0007119 181.9753 178.1463 15.33263333142988
TIANMU-1 21             
1 58662U 23208C   26204.61376764  .00011340  00000+0  32888-3 0  9996
2 58662  97.4526 324.6328 0007459 174.3313 185.8016 15.35673056143151
TIANMU-1 22             
1 58663U 23208D   26204.60122690  .00008357  00000+0  27708-3 0  9992
2 58663  97.4519 321.0098 0003534 185.2720 174.8484 15.31518256142907
TIANMU-1 15             
1 58700U 24004A   26204.60094897  .00006322  00000+0  24141-3 0  9994
2 58700  97.4677  30.7932 0006775 195.1079 164.9958 15.26980185141332
TIANMU-1 16             
1 58701U 24004B   26204.58984590  .00005833  00000+0  22233-3 0  9996
2 58701  97.4624  29.9943 0005039 208.8109 151.2853 15.27082531141337
TIANMU-1 17             
1 58702U 24004C   26204.64086712  .00005757  00000+0  21949-3 0  9991
2 58702  97.4651  30.5434 0004452 213.4520 146.6438 15.27080819141332
TIANMU-1 18             
1 58703U 24004D   26204.61742956  .00005946  00000+0  22719-3 0  9994
2 58703  97.4669  30.7835 0004527 190.0250 170.0899 15.26994398141339
INSAT-3DS               
1 58990U 24033A   26204.55731161 -.00000151  00000+0  00000+0 0  9992
2 58990   0.0707 262.2335 0001280 216.2671 105.4693  1.00273517 47438
METEOR-M2 4             
1 59051U 24039A   26204.62054962  .00000005  00000+0  21928-4 0  9996
2 59051  98.7031 163.4649 0008186  67.8130 292.3916 14.22432785124446
GOES 19                 
1 60133U 24119A   26204.52617140 -.00000244  00000+0  00000+0 0  9999
2 60133   0.0205 124.2755 0000324  46.6739 244.5382  1.00272112  7328
MTG-S1                  
1 64723U 25143A   26204.32714843 -.00000001  00000+0  00000+0 0  9993
2 64723   0.5803 346.9400 0003169 255.5573 176.0210  1.00276021  3781
METOP-SGA1              
1 65159U 25172A   26204.42206544  .00000016  00000+0  27353-4 0  9994
2 65159  98.6622 263.4060 0001469  90.8416 269.2930 14.21503390 48933
FENGYUN 3H              
1 65815U 25219A   26204.33108601  .00000025  00000+0  32075-4 0  9997
2 65815  98.6770 144.3987 0000965  63.6430 296.4846 14.19925773 42511
